LEMUR-2-AMANDA-SVANTE   
1 48269U 21034B   26068.77637527  .00030872  00000+0  11134-2 0  9996
2 48269  97.5829 144.8625 0002703 205.4721 154.6385 15.28469003265849
STARLINK-32508          
1 62158U 24224V   26068.32197151  .00024086  00000+0  88221-3 0  9990
2 62158  43.0002 160.1881 0001057 252.6792 107.3944 15.27569462 72424
